SatCatId,ObjectName,LaunchYear,OrbitalPeriod,LaunchMass,StatusCode,Inclination,Status,UcsData,OrbitClassEstimated,LaunchSiteCountry,Owner,UseType,Purpose,LaunchVehicleClass,TLE1,TLE2,MeanMotion,Eccentricity,OrbitClass
48685,STARLINK-2751,2021,95.59,260.0,+,53.05,Active,1,LEO,USA,USA,Commercial,Communications,Falcon,1 48685U 21044AZ  23275.79785598  .00003143  00000+0  22978-3 0  9990,2 48685  53.0527 102.0559 0001479  83.5781 276.5377 15.06403668130437,15.06403668,0.0001479,LEO
48686,STARLINK-2629,2021,95.59,260.0,+,53.05,Active,1,LEO,USA,USA,Commercial,Communications,Falcon,1 48686U 21044BA  23276.25633008  .00019971  00000+0  13556-2 0  9998,2 48686  53.0531 105.2302 0001643  85.0070 275.1106 15.06405848131321,15.06405848,0.0001643,LEO
48687,STARLINK-2627,2021,95.59,260.0,+,53.05,Active,1,LEO,USA,USA,Commercial,Communications,Falcon,1 48687U 21044BB  23275.76698162  .00003951  00000+0  28404-3 0  9996,2 48687  53.0528  97.1477 0001395  88.9573 271.1576 15.06396864130495,15.06396864,0.0001395,LEO
48688,STARLINK-2742,2021,95.59,260.0,+,53.05,Active,1,LEO,USA,USA,Commercial,Communications,Falcon,1 48688U 21044BC  23275.77067226  .00006563  00000+0  45904-3 0  9995,2 48688  53.0539  97.1324 0001308  80.8201 279.2936 15.06402879130495,15.06402879,0.0001308,LEO
48689,STARLINK-2617,2021,95.59,260.0,+,53.05,Active,1,LEO,USA,USA,Commercial,Communications,Falcon,1 48689U 21044BD  23275.84207561  .00000981  00000+0  84742-4 0  9994,2 48689  53.0534 101.7794 0001345  90.0423 270.0720 15.06399170130437,15.0639917,0.0001345,LEO
48690,STARLINK-2740,2021,95.59,260.0,+,53.05,Active,1,LEO,USA,USA,Commercial,Communications,Falcon,1 48690U 21044BE  23275.84853659  .00000770  00000+0  70602-4 0  9997,2 48690  53.0526 111.7829 0001866  87.6308 272.4894 15.06399319130299,15.06399319,0.0001866,LEO
48691,STARLINK-2750,2021,95.59,260.0,+,53.05,Active,1,LEO,USA,USA,Commercial,Communications,Falcon,1 48691U 21044BF  23275.82135465  .00016878  00000+0  11494-2 0  9992,2 48691  53.0536 106.9027 0001410  77.3934 282.7212 15.06396024130369,15.06396024,0.000141,LEO
48692,STARLINK-2752,2021,95.59,260.0,+,53.05,Active,1,LEO,USA,USA,Commercial,Communications,Falcon,1 48692U 21044BG  23275.80662887  .00017748  00000+0  12076-2 0  9998,2 48692  53.0531 107.0938 0001300  84.0542 276.0595 15.06394114131208,15.06394114,0.00013,LEO
48693,STARLINK-2618,2021,95.59,260.0,+,53.05,Active,1,LEO,USA,USA,Commercial,Communications,Falcon,1 48693U 21044BH  23275.81442426  .00005362  00000+0  37851-3 0  9993,2 48693  53.0516 111.9374 0001283  67.9709 292.1416 15.06408845130291,15.06408845,0.0001283,LEO
48694,STARLINK-2748,2021,95.59,260.0,+,53.05,Active,1,LEO,USA,USA,Commercial,Communications,Falcon,1 48694U 21044BJ  23276.24705902  .00002029  00000+0  15509-3 0  9996,2 48694  53.0520 114.9841 0001372  83.2896 276.8249 15.06397329131126,15.06397329,0.0001372,LEO
48695,STARLINK-2616,2021,95.59,260.0,+,53.05,Active,1,LEO,USA,USA,Commercial,Communications,Falcon,1 48695U 21044BK  23276.00474005  .00022441  00000+0  15209-2 0  9994,2 48695  53.0526 116.1282 0001317  86.9822 273.1317 15.06394259131152,15.06394259,0.0001317,LEO
48696,STARLINK-2753,2021,95.59,260.0,+,53.05,Active,1,LEO,USA,USA,Commercial,Communications,Falcon,1 48696U 21044BL  23275.86236785  .00020651  00000+0  14011-2 0  9990,2 48696  53.0539 121.7671 0001359  90.2549 269.8596 15.06402967130168,15.06402967,0.0001359,LEO
48697,STARLINK-2715,2021,95.59,260.0,+,53.05,Active,1,LEO,USA,USA,Commercial,Communications,Falcon,1 48697U 21044BM  23275.82539612  .00032784  00000+0  22011-2 0  9991,2 48697  53.0527 121.8933 0001130 101.7854 258.3262 15.06543038130159,15.06543038,0.000113,LEO
48767,ONEWEB-0211,2021,109.46,148.0,+,87.89,Active,1,LEO,Russia,UK,Commercial,Communications,Soyuz,1 48767U 21045A   23275.80687610  .00000222  00000+0  55570-3 0  9999,2 48767  87.8936  95.9729 0001732  84.9009 275.2318 13.15551672114469,13.15551672,0.0001732,LEO
48768,ONEWEB-0223,2021,109.46,148.0,+,87.89,Active,1,LEO,Russia,UK,Commercial,Communications,Soyuz,1 48768U 21045B   23276.05618964 -.00000080  00000+0 -24737-3 0  9999,2 48768  87.8933  95.9272 0001924  74.6849 285.4494 13.15547660115620,13.1554766,0.0001924,LEO
48769,ONEWEB-0230,2021,109.46,148.0,+,87.89,Active,1,LEO,Russia,UK,Commercial,Communications,Soyuz,1 48769U 21045C   23276.02873157  .00000194  00000+0  48120-3 0  9990,2 48769  87.8941  95.9990 0001800  86.9452 273.1885 13.15545183115857,13.15545183,0.00018,LEO
48770,ONEWEB-0237,2021,109.46,148.0,+,87.89,Active,1,LEO,Russia,UK,Commercial,Communications,Soyuz,1 48770U 21045D   23275.86604062  .00000013  00000+0  69885-6 0  9994,2 48770  87.8943  95.9499 0002215  79.5696 280.5684 13.15550845114448,13.15550845,0.0002215,LEO
48771,ONEWEB-0235,2021,109.46,148.0,+,87.89,Active,1,LEO,Russia,UK,Commercial,Communications,Soyuz,1 48771U 21045E   23275.76251319 -.00000061  00000+0 -19654-3 0  9998,2 48771  87.8936  96.0006 0002571  78.6287 281.5132 13.15545738114420,13.15545738,0.0002571,LEO
48772,ONEWEB-0242,2021,109.46,148.0,+,87.89,Active,1,LEO,Russia,UK,Commercial,Communications,Soyuz,1 48772U 21045F   23276.51676566  .00000063  00000+0  13323-3 0  9995,2 48772  87.8935  95.8404 0002002  86.2807 273.8552 13.15547245115696,13.15547245,0.0002002,LEO
48773,ONEWEB-0241,2021,109.46,148.0,+,87.89,Active,1,LEO,Russia,UK,Commercial,Communications,Soyuz,1 48773U 21045G   23276.19986432  .00000113  00000+0  26534-3 0  9990,2 48773  87.8945  95.9264 0001790  70.6108 289.5215 13.15547157115565,13.15547157,0.000179,LEO
48774,ONEWEB-0243,2021,109.46,148.0,+,87.89,Active,1,LEO,Russia,UK,Commercial,Communications,Soyuz,1 48774U 21045H   23276.00337318 -.00000041  00000+0 -14262-3 0  9991,2 48774  87.8945  95.9226 0002263  84.0193 276.1195 13.15547217115569,13.15547217,0.0002263,LEO
48775,ONEWEB-0222,2021,109.46,148.0,+,87.89,Active,1,LEO,Russia,UK,Commercial,Communications,Soyuz,1 48775U 21045J   23275.99280382 -.00000122  00000+0 -35850-3 0  9993,2 48775  87.8933  95.9591 0001883  76.1525 283.9814 13.15550176115595,13.15550176,0.0001883,LEO
48776,ONEWEB-0244,2021,109.46,148.0,+,87.89,Active,1,LEO,Russia,UK,Commercial,Communications,Soyuz,1 48776U 21045K   23275.86181728  .00000039  00000+0  68414-4 0  9992,2 48776  87.8931  95.9692 0001935  89.8547 270.2805 13.15552456115029,13.15552456,0.0001935,LEO
48777,ONEWEB-0247,2021,109.46,148.0,+,87.89,Active,1,LEO,Russia,UK,Commercial,Communications,Soyuz,1 48777U 21045L   23275.78153486  .00000083  00000+0  18511-3 0  9995,2 48777  87.8945  95.9995 0002301  78.0339 282.1049 13.15547890114452,13.1554789,0.0002301,LEO
48778,ONEWEB-0245,2021,109.46,148.0,+,87.89,Active,1,LEO,Russia,UK,Commercial,Communications,Soyuz,1 48778U 21045M   23276.53789081  .00000005  00000+0 -21162-4 0  9998,2 48778  87.8933  95.8609 0001715  75.4939 284.6382 13.15551368115651,13.15551368,0.0001715,LEO
48779,ONEWEB-0229,2021,109.46,148.0,+,87.89,Active,1,LEO,Russia,UK,Commercial,Communications,Soyuz,1 48779U 21045N   23275.77096046 -.00001129  00000+0 -30341-2 0  9992,2 48779  87.8935  96.0038 0002066  85.9206 274.2160 13.15551167114459,13.15551167,0.0002066,LEO
48780,ONEWEB-0228,2021,109.46,148.0,+,87.89,Active,1,LEO,Russia,UK,Commercial,Communications,Soyuz,1 48780U 21045P   23276.54528386  .00000010  00000+0 -61925-5 0  9999,2 48780  87.8932  95.8296 0001848  85.2924 274.8417 13.15546309115609,13.15546309,0.0001848,LEO
48781,ONEWEB-0232,2021,109.46,148.0,+,87.89,Active,1,LEO,Russia,UK,Commercial,Communications,Soyuz,1 48781U 21045Q   23275.77942603  .00000004  00000+0 -23030-4 0  9993,2 48781  87.8886  96.0513 0001700  86.7736 273.3589 13.15554966114697,13.15554966,0.00017,LEO
48782,ONEWEB-0231,2021,109.46,148.0,+,87.89,Active,1,LEO,Russia,UK,Commercial,Communications,Soyuz,1 48782U 21045R   23275.53011510 -.00000121  00000+0 -35560-3 0  9993,2 48782  87.8944  96.0573 0002048  82.5869 277.5494 13.15546520115493,13.1554652,0.0002048,LEO
48783,ONEWEB-0234,2021,109.44,148.0,+,87.89,Active,1,LEO,Russia,UK,Commercial,Communications,Soyuz,1 48783U 21045S   23276.58334491 -.00036520  00000+0 -96598-1 0  9994,2 48783  87.8939  95.8288 0000084 313.4966 236.5310 13.16132382115759,13.16132382,8.4e-06,LEO
48784,ONEWEB-0238,2021,109.46,148.0,+,87.89,Active,1,LEO,Russia,UK,Commercial,Communications,Soyuz,1 48784U 21045T   23275.87131671  .00000162  00000+0  39583-3 0  9995,2 48784  87.8935  95.9818 0001614  85.5081 274.6234 13.15552256114438,13.15552256,0.0001614,LEO
48785,ONEWEB-0240,2021,109.46,148.0,+,87.89,Active,1,LEO,Russia,UK,Commercial,Communications,Soyuz,1 48785U 21045U   23275.51323898  .00000172  00000+0  42164-3 0  9991,2 48785  87.8936  96.0279 0001907  71.7264 288.4073 13.15550722115530,13.15550722,0.0001907,LEO
48786,ONEWEB-0246,2021,109.46,148.0,+,87.89,Active,1,LEO,Russia,UK,Commercial,Communications,Soyuz,1 48786U 21045V   23275.58504214  .00000042  00000+0  76332-4 0  9993,2 48786  87.8937  96.0149 0002158  79.9226 280.2147 13.15552069114295,13.15552069,0.0002158,LEO
48787,ONEWEB-0210,2021,109.46,148.0,+,87.89,Active,1,LEO,Russia,UK,Commercial,Communications,Soyuz,1 48787U 21045W   23275.86392002  .00000073  00000+0  16041-3 0  9999,2 48787  87.8933  95.9676 0002547  90.6114 269.5308 13.15550483114379,13.15550483,0.0002547,LEO
48788,ONEWEB-0214,2021,109.46,148.0,+,87.89,Active,1,LEO,Russia,UK,Commercial,Communications,Soyuz,1 48788U 21045X   23275.87451392  .00000045  00000+0  85528-4 0  9995,2 48788  87.8933  95.9545 0002513  93.8750 266.2668 13.15549005114347,13.15549005,0.0002513,LEO
48789,ONEWEB-0221,2021,109.46,148.0,+,87.89,Active,1,LEO,Russia,UK,Commercial,Communications,Soyuz,1 48789U 21045Y   23275.80477341  .00000218  00000+0  54592-3 0  9999,2 48789  87.8938  95.9793 0001923  78.9319 281.2027 13.15552419114425,13.15552419,0.0001923,LEO
